QIANFAN-41              
1 62242U 24232F   25352.90943193  .00000100  00000+0  13649-3 0  9990
2 62242  89.0019  40.5751 0014732 166.2150 193.9406 13.50979389100080
QIANFAN-42              
1 62243U 24232G   25352.88411119  .00000309  00000+0  12706-3 0  9990
2 62243  89.0009  36.6556 0017026  68.8936 291.4075 14.24491440102242
QIANFAN-43              
1 62244U 24232H   25352.90527368  .00000097  00000+0  13167-3 0  9994
2 62244  89.0024  40.6411 0016068 171.9015 188.2399 13.50978266 68690
QIANFAN-44              
1 62245U 24232J   25352.89297516  .00000090  00000+0  12105-3 0  9996
2 62245  89.0022  40.4530 0014382 168.2681 191.8808 13.50980572100161
QIANFAN-45              
1 62246U 24232K   25352.93410584  .00000092  00000+0  12410-3 0  9995
2 62246  89.0026  40.5955 0015060 168.1437 192.0071 13.50976506100099
QIANFAN-46              
1 62247U 24232L   25352.88471282  .00000080  00000+0  10568-3 0  9991
2 62247  89.0022  40.6694 0014918 173.5861 186.5483 13.50978387100048
QIANFAN-47              
1 62248U 24232M   25352.88886894  .00000085  00000+0  11357-3 0  9993
2 62248  89.0018  40.6016 0015372 172.9635 187.1735 13.50978643100074
QIANFAN-48              
1 62249U 24232N   25352.92587610  .00000086  00000+0  11402-3 0  9995
2 62249  89.0022  40.6000 0017538 176.3237 183.8046 13.50980402100080
